STARLINK-1279
1 45360U 20019A   26061.18502700  .00104842  00000+0  14729-2 0  9991
2 45360  53.0434 135.0626 0001225 150.7630 209.3449 15.55907095329500
STARLINK-1666
1 46357U 20062AJ  26061.10903272  .00117255  00000+0  16437-2 0  9997
2 46357  53.0492  11.1182 0006112  91.4004 268.7707 15.55894337303724
